{
  "type": "FeatureCollection",
  "features": [
    {
      "type": "Feature",
      "id": 1,
      "properties": {
        "name": "Yangiobod",
        "crimeLevel": 0.72,
        "officer": "Said Akhmedov",
        "population": 12450
      },
      "geometry": {
        "type": "Polygon",
        "coordinates": [
          [
            [68.64, 40.60],
            [68.70, 40.60],
            [68.72, 40.66],
            [68.67, 40.69],
            [68.63, 40.66],
            [68.64, 40.60]
          ]
        ]
      }
    },
    {
      "type": "Feature",
      "id": 2,
      "properties": {
        "name": "Gulzor",
        "crimeLevel": 0.35,
        "officer": "Dilfuza Karimova",
        "population": 9800
      },
      "geometry": {
        "type": "Polygon",
        "coordinates": [
          [
            [68.72, 40.60],
            [68.79, 40.59],
            [68.83, 40.64],
            [68.78, 40.69],
            [68.72, 40.66],
            [68.72, 40.60]
          ]
        ]
      }
    },
    {
      "type": "Feature",
      "id": 3,
      "properties": {
        "name": "Navbahor",
        "crimeLevel": 0.58,
        "officer": "Jamshid Qosimov",
        "population": 11200
      },
      "geometry": {
        "type": "Polygon",
        "coordinates": [
          [
            [68.60, 40.67],
            [68.66, 40.69],
            [68.68, 40.74],
            [68.63, 40.75],
            [68.58, 40.72],
            [68.60, 40.67]
          ]
        ]
      }
    },
    {
      "type": "Feature",
      "id": 4,
      "properties": {
        "name": "Bunyodkor",
        "crimeLevel": 0.22,
        "officer": "Otabek Musaev",
        "population": 8600
      },
      "geometry": {
        "type": "Polygon",
        "coordinates": [
          [
            [68.68, 40.70],
            [68.74, 40.70],
            [68.78, 40.74],
            [68.74, 40.77],
            [68.69, 40.75],
            [68.68, 40.70]
          ]
        ]
      }
    }
  ]
}
